*******************************************************************************
 Revised: Jan 08, 2014          Trinculo  / (Uranus)                        721

           http://ssd.jpl.nasa.gov/sat_props.html  (physical properties)
           http://ssd.jpl.nasa.gov/sat_elem.html   (mean elements)

*******************************************************************************
 
 
*******************************************************************************
Ephemeris / WWW_USER Sun Nov 12 09:41:31 2017 Pasadena, USA      / Horizons    
*******************************************************************************
Target body name: Trinculo (721)                  {source: ura112}
Center body name: Solar System Barycenter (0)     {source: DE431mx}
Center-site name: BODY CENTER
*******************************************************************************
Start time      : A.D. 2017-Jul-10 00:00:00.0000 TDB
Stop  time      : A.D. 2020-Aug-13 00:00:00.0000 TDB
Step-size       : 1440 minutes
*******************************************************************************
Center geodetic : 0.00000000,0.00000000,0.0000000 {E-lon(deg),Lat(deg),Alt(km)}
Center cylindric: 0.00000000,0.00000000,0.0000000 {E-lon(deg),Dxy(km),Dz(km)}
Center radii    : (undefined)                                                  
Output units    : KM-S                                                         
Output type     : GEOMETRIC cartesian states
Output format   : 3 (position, velocity, LT, range, range-rate)
Reference frame : ICRF/J2000.0                                                 
Coordinate systm: Ecliptic and Mean Equinox of Reference Epoch                 
*******************************************************************************
            JDTDB,            Calendar Date (TDB),                      X,                      Y,                      Z,                     VX,                     VY,                     VZ,                     LT,                     RG,                     RR,
**************************************************************************************************************************************************************************************************************************************************************************
$$SOE
2458532.500000000, A.D. 2019-Feb-18 00:00:00.0000,  2.526529593767229E+09,  1.562933759631501E+09, -2.514623471792662E+07, -2.793063206929023E+00,  5.774911768770474E+00,  6.706934469709180E-02,  9.910135971083479E+03,  2.970984021885333E+09,  6.621917710629354E-01,
2458533.500000000, A.D. 2019-Feb-19 00:00:00.0000,  2.526288394287011E+09,  1.563432401085151E+09, -2.514051773332703E+07, -2.790266054243499E+00,  5.767704327724156E+00,  6.526659038882920E-02,  9.910326785105908E+03,  2.971041226490138E+09,  6.619760852275385E-01,
2458534.500000000, A.D. 2019-Feb-20 00:00:00.0000,  2.526047434403702E+09,  1.563930417186706E+09, -2.513495693868029E+07, -2.787517143337823E+00,  5.760436031922542E+00,  6.345385101685341E-02,  9.910517525852641E+03,  2.971098409127442E+09,  6.616831278441444E-01,
2458535.500000000, A.D. 2019-Feb-21 00:00:00.0000,  2.525806709907290E+09,  1.564427802680036E+09, -2.512955319289327E+07, -2.784817446374062E+00,  5.753106922890106E+00,  6.163121514441805E-02,  9.910708170936123E+03,  2.971155563085624E+09,  6.613120799039904E-01,
2458536.500000000, A.D. 2019-Feb-22 00:00:00.0000,  2.525566216503319E+09,  1.564924552313037E+09, -2.512430734708405E+07, -2.782167945906129E+00,  5.745717052235724E+00,  5.979877449313875E-02,  9.910898697732322E+03,  2.971212681582172E+09,  6.608621194472947E-01,
2458537.500000000, A.D. 2019-Feb-23 00:00:00.0000,  2.525325949811992E+09,  1.565420660838495E+09, -2.511922024430907E+07, -2.779569634879771E+00,  5.738266481652694E+00,  5.795662394298606E-02,  9.911089083379911E+03,  2.971269757763430E+09,  6.603324215773185E-01,
2458538.500000000, A.D. 2019-Feb-24 00:00:00.0000,  2.525085905367270E+09,  1.565916123014966E+09, -2.511429271929145E+07, -2.777023516632581E+00,  5.730755282918722E+00,  5.610486153229033E-02,  9.911279304779389E+03,  2.971326784704344E+09,  6.597221584743300E-01,
2458539.500000000, A.D. 2019-Feb-25 00:00:00.0000,  2.524846078615981E+09,  1.566410933607641E+09, -2.510952559814656E+07, -2.774530604893993E+00,  5.723183537895927E+00,  5.424358845773725E-02,  9.911469338592280E+03,  2.971383755408214E+09,  6.590304994094829E-01,
2458540.500000000, A.D. 2019-Feb-26 00:00:00.0000,  2.524606464916913E+09,  1.566905087389220E+09, -2.510491969811058E+07, -2.772091923785282E+00,  5.715551338530843E+00,  5.237290907437187E-02,  9.911659161240254E+03,  2.971440662806434E+09,  6.582566107586130E-01,
2458541.500000000, A.D. 2019-Feb-27 00:00:00.0000,  2.524367059539924E+09,  1.567398579140782E+09, -2.510047582726669E+07, -2.769708507819560E+00,  5.707858786854414E+00,  5.049293089559725E-02,  9.911848748904325E+03,  2.971497499758252E+09,  6.573996560159304E-01,
2458542.500000000, A.D. 2019-Feb-28 00:00:00.0000,  2.524127857665042E+09,  1.567891403652661E+09, -2.509619478427267E+07, -2.767381401901783E+00,  5.700105994982003E+00,  4.860376459317184E-02,  9.912038077524012E+03,  2.971554259050518E+09,  6.564587958076412E-01,
2458543.500000000, A.D. 2019-Mar-01 00:00:00.0000,  2.523888854366549E+09,  1.568383555728182E+09, -2.509207735620105E+07, -2.765111968638280E+00,  5.692293222131486E+00,  4.670558057824570E-02,  9.912227122758990E+03,  2.971610933386185E+09,  6.554329987580348E-01,
2458544.500000000, A.D. 2019-Mar-02 00:00:00.0000,  2.523650044640435E+09,  1.568875030206062E+09, -2.508812431563568E+07, -2.762900744690293E+00,  5.684420888163446E+00,  4.479851874579177E-02,  9.912415860106415E+03,  2.971667515419486E+09,  6.543220209023684E-01,
2458545.500000000, A.D. 2019-Mar-03 00:00:00.0000,  2.523411423409453E+09,  1.569365821946728E+09, -2.508433642422605E+07, -2.760748840750703E+00,  5.676489147727958E+00,  4.288270488408319E-02,  9.912604264891495E+03,  2.971723997753104E+09,  6.531249915713733E-01,
2458546.500000000, A.D. 2019-Mar-04 00:00:00.0000,  2.523172985500274E+09,  1.569855925825006E+09, -2.508071443250775E+07, -2.758657370237516E+00,  5.668498179486569E+00,  4.095827051260459E-02,  9.912792312190120E+03,  2.971780372914979E+09,  6.518410511521893E-01,
2458547.500000000, A.D. 2019-Mar-05 00:00:00.0000,  2.522934725643251E+09,  1.570345336732196E+09, -2.507725907940483E+07, -2.756627449293875E+00,  5.660448186112058E+00,  3.902535288222264E-02,  9.912979976832026E+03,  2.971836633359256E+09,  6.504693511097895E-01,
2458548.500000000, A.D. 2019-Mar-06 00:00:00.0000,  2.522696638472188E+09,  1.570834049578147E+09, -2.507397109173524E+07, -2.754660196788062E+00,  5.652339394288506E+00,  3.708409497513232E-02,  9.913167233404003E+03,  2.971892771467246E+09,  6.490090540084669E-01,
2458549.500000000, A.D. 2019-Mar-07 00:00:00.0000,  2.522458718524096E+09,  1.571322059293331E+09, -2.507085118371570E+07, -2.752756734313495E+00,  5.644172054711294E+00,  3.513464550485601E-02,  9.913354056253092E+03,  2.971948779548385E+09,  6.474593335331249E-01,
2458550.500000000, A.D. 2019-Mar-08 00:00:00.0000,  2.522220960238967E+09,  1.571809360830915E+09, -2.506790005646670E+07, -2.750918186188724E+00,  5.635946442087111E+00,  3.317715891624218E-02,  9.913540419489804E+03,  2.972004649841199E+09,  6.458193745104451E-01,
2458551.500000000, A.D. 2019-Mar-09 00:00:00.0000,  2.521983357959533E+09,  1.572295949168840E+09, -2.506511839751637E+07, -2.749145679457441E+00,  5.627662855133943E+00,  3.121179538546848E-02,  9.913726296991315E+03,  2.972060374514264E+09,  6.440883729298894E-01,
2458552.500000000, A.D. 2019-Mar-10 00:00:00.0000,  2.521745905931030E+09,  1.572781819311893E+09, -2.506250688030732E+07, -2.747440343888467E+00,  5.619321616581079E+00,  2.923872082003731E-02,  9.913911662404704E+03,  2.972115945667172E+09,  6.422655359645890E-01,
2458553.500000000, A.D. 2019-Mar-11 00:00:00.0000,  2.521508598300966E+09,  1.573266966293782E+09, -2.506006616369879E+07, -2.745803311975762E+00,  5.610923073169114E+00,  2.725810685878072E-02,  9.914096489150163E+03,  2.972171355331498E+09,  6.403500819920750E-01,
2458554.500000000, A.D. 2019-Mar-12 00:00:00.0000,  2.521271429118884E+09,  1.573751385179211E+09, -2.505779689147389E+07, -2.744235718938424E+00,  5.602467595649944E+00,  2.527013087185592E-02,  9.914280750424256E+03,  2.972226595471771E+09,  6.383412406148717E-01,
2458555.500000000, A.D. 2019-Mar-13 00:00:00.0000,  2.521034392336124E+09,  1.574235071065954E+09, -2.505569969184279E+07, -2.742738702720683E+00,  5.593955578786764E+00,  2.327497596074934E-02,  9.914464419203116E+03,  2.972281657986444E+09,  6.362382526809590E-01,
2458556.500000000, A.D. 2019-Mar-14 00:00:00.0000,  2.520797481805593E+09,  1.574718019086930E+09, -2.505377517694795E+07, -2.741313403991906E+00,  5.585387441354073E+00,  2.127283095827170E-02,  9.914647468245728E+03,  2.972336534708864E+09,  6.340403703040907E-01,
2458557.500000000, A.D. 2019-Mar-15 00:00:00.0000,  2.520560691281524E+09,  1.575200224412277E+09, -2.505202394236982E+07, -2.739960966146594E+00,  5.576763626137677E+00,  1.926389042856425E-02,  9.914829870097161E+03,  2.972391217408248E+09,  6.317468568839769E-01,
2458558.500000000, A.D. 2019-Mar-16 00:00:00.0000,  2.520324014419243E+09,  1.575681682251427E+09, -2.505044656663001E+07, -2.738682535304388E+00,  5.568084599934680E+00,  1.724835466709340E-02,  9.915011597091814E+03,  2.972445697790660E+09,  6.293569871263341E-01,
2458559.500000000, A.D. 2019-Mar-17 00:00:00.0000,  2.520087444774937E+09,  1.576162387855181E+09, -2.504904361069775E+07, -2.737479260310062E+00,  5.559350853553484E+00,  1.522642970065435E-02,  9.915192621356699E+03,  2.972499967499988E+09,  6.268700470627784E-01,
